[{"CCSDS_OMM_VERS":"2.0","COMMENT":"GENERATED VIA SPACE-TRACK.ORG API","CREATION_DATE":"2018-12-28T17:41:40","ORIGINATOR":"18 SPCS","OBJECT_NAME":"TBA - TO BE ASSIGNED","OBJECT_ID":"2000-000","CENTER_NAME":"EARTH","REF_FRAME":"TEME","TIME_SYSTEM":"UTC","MEAN_ELEMENT_THEORY":"SGP4","EPOCH":"2018-12-27T19:48:39.144384","MEAN_MOTION":"14.95565074","ECCENTRICITY":"0.00256590","INCLINATION":"98.9216","RA_OF_ASC_NODE":"309.1107","ARG_OF_PERICENTER":"232.0207","MEAN_ANOMALY":"127.8692","EPHEMERIS_TYPE":"0","CLASSIFICATION_TYPE":"U","NORAD_CAT_ID":"81495","ELEMENT_SET_NO":"999","REV_AT_EPOCH":"18019","BSTAR":"0.00063727000000","MEAN_MOTION_DOT":"0.00007045","MEAN_MOTION_DDOT":"0.0000000000000","SEMIMAJOR_AXIS":"6958.756","PERIOD":"96.284","APOAPSIS":"598.476","PERIAPSIS":"562.765","OBJECT_TYPE":"TBA","RCS_SIZE":null,"COUNTRY_CODE":null,"LAUNCH_DATE":null,"SITE":null,"DECAY_DATE":null,"FILE":"2385353","GP_ID":"125561666","TLE_LINE0":"0 TBA - TO BE ASSIGNED","TLE_LINE1":"1 81495U          18361.82545306 +.00007045 +00000-0 +63727-3 0  9993","TLE_LINE2":"2 81495 098.9216 309.1107 0025659 232.0207 127.8692 14.95565074180198"},{"CCSDS_OMM_VERS":"2.0","COMMENT":"GENERATED VIA SPACE-TRACK.ORG API","CREATION_DATE":"2021-11-04T17:50:53","ORIGINATOR":"18 SPCS","OBJECT_NAME":"TBA - TO BE ASSIGNED","OBJECT_ID":"","CENTER_NAME":"EARTH","REF_FRAME":"TEME","TIME_SYSTEM":"UTC","MEAN_ELEMENT_THEORY":"SGP4","EPOCH":"2021-11-04T14:29:23.635392","MEAN_MOTION":"13.67559083","ECCENTRICITY":"0.00334670","INCLINATION":"100.3033","RA_OF_ASC_NODE":"63.0682","ARG_OF_PERICENTER":"211.3047","MEAN_ANOMALY":"162.6940","EPHEMERIS_TYPE":"0","CLASSIFICATION_TYPE":"U","NORAD_CAT_ID":"81497","ELEMENT_SET_NO":"999","REV_AT_EPOCH":"1034","BSTAR":"0.00369690000000","MEAN_MOTION_DOT":"0.00003083","MEAN_MOTION_DDOT":"0.0000000000000","SEMIMAJOR_AXIS":"7386.484","PERIOD":"105.297","APOAPSIS":"1033.070","PERIAPSIS":"983.629","OBJECT_TYPE":"TBA","RCS_SIZE":null,"COUNTRY_CODE":null,"LAUNCH_DATE":null,"SITE":null,"DECAY_DATE":null,"FILE":"3200777","GP_ID":"188874034","TLE_LINE0":"0 TBA - TO BE ASSIGNED","TLE_LINE1":"1 81497U          21308.60374578 +.00003083 +00000+0 +36969-2 0  9991","TLE_LINE2":"2 81497 100.3033  63.0682 0033467 211.3047 162.6940 13.67559083 10340"},{"CCSDS_OMM_VERS":"2.0","COMMENT":"GENERATED VIA SPACE-TRACK.ORG API","CREATION_DATE":"2021-11-03T18:02:46","ORIGINATOR":"18 SPCS","OBJECT_NAME":"TBA - TO BE ASSIGNED","OBJECT_ID":"","CENTER_NAME":"EARTH","REF_FRAME":"TEME","TIME_SYSTEM":"UTC","MEAN_ELEMENT_THEORY":"SGP4","EPOCH":"2021-11-02T17:30:55.468224","MEAN_MOTION":"14.36391120","ECCENTRICITY":"0.00022140","INCLINATION":"74.0521","RA_OF_ASC_NODE":"114.4016","ARG_OF_PERICENTER":"178.0520","MEAN_ANOMALY":"182.0642","EPHEMERIS_TYPE":"0","CLASSIFICATION_TYPE":"U","NORAD_CAT_ID":"81499","ELEMENT_SET_NO":"999","REV_AT_EPOCH":"26627","BSTAR":"0.00036365000000","MEAN_MOTION_DOT":"0.00001039","MEAN_MOTION_DDOT":"0.0000000000000","SEMIMAJOR_AXIS":"7148.584","PERIOD":"100.251","APOAPSIS":"772.032","PERIAPSIS":"768.866","OBJECT_TYPE":"TBA","RCS_SIZE":null,"COUNTRY_CODE":null,"LAUNCH_DATE":null,"SITE":null,"DECAY_DATE":null,"FILE":"3199757","GP_ID":"188806374","TLE_LINE0":"0 TBA - TO BE ASSIGNED","TLE_LINE1":"1 81499U          21306.72980866 +.00001039 +00000+0 +36365-3 0  9997","TLE_LINE2":"2 81499  74.0521 114.4016 0002214 178.0520 182.0642 14.36391120266277"},{"CCSDS_OMM_VERS":"2.0","COMMENT":"GENERATED VIA SPACE-TRACK.ORG API","CREATION_DATE":"2021-11-03T18:02:46","ORIGINATOR":"18 SPCS","OBJECT_NAME":"TBA - TO BE ASSIGNED","OBJECT_ID":"","CENTER_NAME":"EARTH","REF_FRAME":"TEME","TIME_SYSTEM":"UTC","MEAN_ELEMENT_THEORY":"SGP4","EPOCH":"2021-11-02T16:55:55.273440","MEAN_MOTION":"14.59699000","ECCENTRICITY":"0.00216580","INCLINATION":"98.7358","RA_OF_ASC_NODE":"114.1392","ARG_OF_PERICENTER":"170.5166","MEAN_ANOMALY":"189.6446","EPHEMERIS_TYPE":"0","CLASSIFICATION_TYPE":"U","NORAD_CAT_ID":"81509","ELEMENT_SET_NO":"999","REV_AT_EPOCH":"24615","BSTAR":"0.00476220000000","MEAN_MOTION_DOT":"0.00022797","MEAN_MOTION_DDOT":"0.0000000000000","SEMIMAJOR_AXIS":"7072.283","PERIOD":"98.650","APOAPSIS":"709.465","PERIAPSIS":"678.831","OBJECT_TYPE":"TBA","RCS_SIZE":null,"COUNTRY_CODE":null,"LAUNCH_DATE":null,"SITE":null,"DECAY_DATE":null,"FILE":"3199757","GP_ID":"188806258","TLE_LINE0":"0 TBA - TO BE ASSIGNED","TLE_LINE1":"1 81509U          21306.70550085 +.00022797 +00000+0 +47622-2 0  9994","TLE_LINE2":"2 81509  98.7358 114.1392 0021658 170.5166 189.6446 14.59699000246153"},{"CCSDS_OMM_VERS":"2.0","COMMENT":"GENERATED VIA SPACE-TRACK.ORG API","CREATION_DATE":"2021-11-04T17:50:53","ORIGINATOR":"18 SPCS","OBJECT_NAME":"TBA - TO BE ASSIGNED","OBJECT_ID":"","CENTER_NAME":"EARTH","REF_FRAME":"TEME","TIME_SYSTEM":"UTC","MEAN_ELEMENT_THEORY":"SGP4","EPOCH":"2021-11-04T05:38:33.228384","MEAN_MOTION":"14.63299963","ECCENTRICITY":"0.00115970","INCLINATION":"99.6956","RA_OF_ASC_NODE":"98.9793","ARG_OF_PERICENTER":"289.6451","MEAN_ANOMALY":"194.1319","EPHEMERIS_TYPE":"0","CLASSIFICATION_TYPE":"U","NORAD_CAT_ID":"81521","ELEMENT_SET_NO":"999","REV_AT_EPOCH":"42171","BSTAR":"0.00435240000000","MEAN_MOTION_DOT":"0.00022492","MEAN_MOTION_DDOT":"0.0000000000000","SEMIMAJOR_AXIS":"7060.676","PERIOD":"98.408","APOAPSIS":"690.729","PERIAPSIS":"674.352","OBJECT_TYPE":"TBA","RCS_SIZE":null,"COUNTRY_CODE":null,"LAUNCH_DATE":null,"SITE":null,"DECAY_DATE":null,"FILE":"3200777","GP_ID":"188873959","TLE_LINE0":"0 TBA - TO BE ASSIGNED","TLE_LINE1":"1 81521U          21308.23510681 +.00022492 +00000+0 +43524-2 0  9995","TLE_LINE2":"2 81521  99.6956  98.9793 0011597 289.6451 194.1319 14.63299963421711"},{"CCSDS_OMM_VERS":"2.0","COMMENT":"GENERATED VIA SPACE-TRACK.ORG API","CREATION_DATE":"2021-11-04T17:50:53","ORIGINATOR":"18 SPCS","OBJECT_NAME":"TBA - TO BE ASSIGNED","OBJECT_ID":"","CENTER_NAME":"EARTH","REF_FRAME":"TEME","TIME_SYSTEM":"UTC","MEAN_ELEMENT_THEORY":"SGP4","EPOCH":"2021-11-04T06:42:11.240064","MEAN_MOTION":"14.07524894","ECCENTRICITY":"0.02521600","INCLINATION":"98.1137","RA_OF_ASC_NODE":"146.5252","ARG_OF_PERICENTER":"148.1385","MEAN_ANOMALY":"213.5324","EPHEMERIS_TYPE":"0","CLASSIFICATION_TYPE":"U","NORAD_CAT_ID":"81535","ELEMENT_SET_NO":"999","REV_AT_EPOCH":"17610","BSTAR":"0.00038925000000","MEAN_MOTION_DOT":"0.00000840","MEAN_MOTION_DDOT":"0.0000000000000","SEMIMAJOR_AXIS":"7245.991","PERIOD":"102.307","APOAPSIS":"1050.571","PERIAPSIS":"685.141","OBJECT_TYPE":"TBA","RCS_SIZE":null,"COUNTRY_CODE":null,"LAUNCH_DATE":null,"SITE":null,"DECAY_DATE":null,"FILE":"3200777","GP_ID":"188874158","TLE_LINE0":"0 TBA - TO BE ASSIGNED","TLE_LINE1":"1 81535U          21308.27929676 +.00000840 +00000+0 +38925-3 0  9995","TLE_LINE2":"2 81535  98.1137 146.5252 0252160 148.1385 213.5324 14.07524894176103"},{"CCSDS_OMM_VERS":"2.0","COMMENT":"GENERATED VIA SPACE-TRACK.ORG API","CREATION_DATE":"2021-11-03T18:02:46","ORIGINATOR":"18 SPCS","OBJECT_NAME":"TBA - TO BE ASSIGNED","OBJECT_ID":"1973-086","CENTER_NAME":"EARTH","REF_FRAME":"TEME","TIME_SYSTEM":"UTC","MEAN_ELEMENT_THEORY":"SGP4","EPOCH":"2021-11-03T06:29:01.721184","MEAN_MOTION":"12.53959562","ECCENTRICITY":"0.00387270","INCLINATION":"102.0457","RA_OF_ASC_NODE":"125.3499","ARG_OF_PERICENTER":"262.9833","MEAN_ANOMALY":"273.0868","EPHEMERIS_TYPE":"0","CLASSIFICATION_TYPE":"U","NORAD_CAT_ID":"81536","ELEMENT_SET_NO":"999","REV_AT_EPOCH":"36361","BSTAR":"0.00229130000000","MEAN_MOTION_DOT":"0.00000321","MEAN_MOTION_DDOT":"0.0000000000000","SEMIMAJOR_AXIS":"7826.114","PERIOD":"114.836","APOAPSIS":"1478.287","PERIAPSIS":"1417.671","OBJECT_TYPE":"TBA","RCS_SIZE":null,"COUNTRY_CODE":null,"LAUNCH_DATE":null,"SITE":null,"DECAY_DATE":null,"FILE":"3199757","GP_ID":"188806183","TLE_LINE0":"0 TBA - TO BE ASSIGNED","TLE_LINE1":"1 81536U 73086    21307.27015881 +.00000321 +00000+0 +22913-2 0  9996","TLE_LINE2":"2 81536 102.0457 125.3499 0038727 262.9833 273.0868 12.53959562363617"},{"CCSDS_OMM_VERS":"2.0","COMMENT":"GENERATED VIA SPACE-TRACK.ORG API","CREATION_DATE":"2021-11-04T17:50:53","ORIGINATOR":"18 SPCS","OBJECT_NAME":"TBA - TO BE ASSIGNED","OBJECT_ID":"1993-016","CENTER_NAME":"EARTH","REF_FRAME":"TEME","TIME_SYSTEM":"UTC","MEAN_ELEMENT_THEORY":"SGP4","EPOCH":"2021-11-04T08:22:17.418144","MEAN_MOTION":"14.05646944","ECCENTRICITY":"0.00813550","INCLINATION":"71.0399","RA_OF_ASC_NODE":"326.8371","ARG_OF_PERICENTER":"250.0206","MEAN_ANOMALY":"109.2138","EPHEMERIS_TYPE":"0","CLASSIFICATION_TYPE":"U","NORAD_CAT_ID":"81537","ELEMENT_SET_NO":"999","REV_AT_EPOCH":"40967","BSTAR":"0.00005805000000","MEAN_MOTION_DOT":"0.00000051","MEAN_MOTION_DDOT":"0.0000000000000","SEMIMAJOR_AXIS":"7252.443","PERIOD":"102.444","APOAPSIS":"933.311","PERIAPSIS":"815.306","OBJECT_TYPE":"TBA","RCS_SIZE":null,"COUNTRY_CODE":null,"LAUNCH_DATE":null,"SITE":null,"DECAY_DATE":null,"FILE":"3200777","GP_ID":"188874197","TLE_LINE0":"0 TBA - TO BE ASSIGNED","TLE_LINE1":"1 81537U 93016    21308.34881271 +.00000051 +00000+0 +58050-4 0  9998","TLE_LINE2":"2 81537  71.0399 326.8371 0081355 250.0206 109.2138 14.05646944409675"}]